$$SOE
2460154.500000000, A.D. 2023-Jul-29 00:00:00.0000, 1.344599894162340E+07, 2.848779703949040E+08, -4.447978476526245E+07,
2460161.500000000, A.D. 2023-Aug-05 00:00:00.0000, 4.292670257429096E+05, 2.853687471662823E+08, -3.872587673507777E+07,
2460168.500000000, A.D. 2023-Aug-12 00:00:00.0000, -1.258827938511198E+07, 2.852796589311790E+08, -3.289328566118450E+07,
2460175.500000000, A.D. 2023-Aug-19 00:00:00.0000, -2.558005599393252E+07, 2.846076198774017E+08, -2.699348527524680E+07,
2460182.500000000, A.D. 2023-Aug-26 00:00:00.0000, -3.851929723777201E+07, 2.833514556297253E+08, -2.103828830540742E+07,
2460189.500000000, A.D. 2023-Sep-02 00:00:00.0000, -5.137921244538217E+07, 2.815119373197660E+08, -1.503978125577836E+07,
2460196.500000000, A.D. 2023-Sep-09 00:00:00.0000, -6.413314481857295E+07, 2.790917963977669E+08, -9.010255343851984E+06,
2460203.500000000, A.D. 2023-Sep-16 00:00:00.0000, -7.675473059726207E+07, 2.760957195714458E+08, -2.962134646091670E+06,
2460210.500000000, A.D. 2023-Sep-23 00:00:00.0000, -8.921805547420652E+07, 2.725303240415978E+08, 3.092097422917277E+06,
2460217.500000000, A.D. 2023-Sep-30 00:00:00.0000, -1.014978061147529E+08, 2.684041145615939E+08, 9.139972268078387E+06,
2460224.500000000, A.D. 2023-Oct-07 00:00:00.0000, -1.135694167540073E+08, 2.637274225630050E+08, 1.516910990996309E+07,
2460231.500000000, A.D. 2023-Oct-14 00:00:00.0000, -1.254092076166801E+08, 2.585123252152236E+08, 2.116729090960421E+07,
2460238.500000000, A.D. 2023-Oct-21 00:00:00.0000, -1.369945099803934E+08, 2.527725475640070E+08, 2.712252517121579E+07,
2460245.500000000, A.D. 2023-Oct-28 00:00:00.0000, -1.483037776623712E+08, 2.465233519009525E+08, 3.302311694201525E+07,
2460252.500000000, A.D. 2023-Nov-04 00:00:00.0000, -1.593166848548222E+08, 2.397814157309250E+08, 3.885772518422626E+07,
2460259.500000000, A.D. 2023-Nov-11 00:00:00.0000, -1.700142091707255E+08, 2.325647000388831E+08, 4.461541851740806E+07,
2460266.500000000, A.D. 2023-Nov-18 00:00:00.0000, -1.803786990938736E+08, 2.248923101957336E+08, 5.028572412331438E+07,
2460273.500000000, A.D. 2023-Nov-25 00:00:00.0000, -1.903939255345824E+08, 2.167843519545572E+08, 5.585867018643267E+07,
2460280.500000000, A.D. 2023-Dec-02 00:00:00.0000, -2.000451175780347E+08, 2.082617849003168E+08, 6.132482160227562E+07,
2460287.500000000, A.D. 2023-Dec-09 00:00:00.0000, -2.093189827829875E+08, 1.993462755451220E+08, 6.667530882747284E+07,
2460294.500000000, A.D. 2023-Dec-16 00:00:00.0000, -2.182037124753446E+08, 1.900600521618448E+08, 7.190184987806769E+07,
2460301.500000000, A.D. 2023-Dec-23 00:00:00.0000, -2.266889726744673E+08, 1.804257639253481E+08, 7.699676567348629E+07,
2460308.500000000, A.D. 2023-Dec-30 00:00:00.0000, -2.347658831717835E+08, 1.704663470703396E+08, 8.195298923591469E+07,
2460315.500000000, A.D. 2024-Jan-06 00:00:00.0000, -2.424269878417818E+08, 1.602048971193268E+08, 8.676406911874114E+07,
2460322.500000000, A.D. 2024-Jan-13 00:00:00.0000, -2.496662143835948E+08, 1.496645465162438E+08, 9.142416709812084E+07,
2460329.500000000, A.D. 2024-Jan-20 00:00:00.0000, -2.564788236756241E+08, 1.388683516032574E+08, 9.592805078308573E+07,
2460336.500000000, A.D. 2024-Jan-27 00:00:00.0000, -2.628613522020426E+08, 1.278391901904518E+08, 1.002710819388651E+08,
2460343.500000000, A.D. 2024-Feb-03 00:00:00.0000, -2.688115493770791E+08, 1.165996691411922E+08, 1.044492010616911E+08,
2460350.500000000, A.D. 2024-Feb-10 00:00:00.0000, -2.743283108171489E+08, 1.051720418346904E+08, 1.084589087298583E+08,
2460357.500000000, A.D. 2024-Feb-17 00:00:00.0000, -2.794116086650313E+08, 9.357813547291484E+07, 1.122972442789362E+08,
2460364.500000000, A.D. 2024-Feb-24 00:00:00.0000, -2.840624200725778E+08, 8.183928804310364E+07, 1.159617623351914E+08,
2460371.500000000, A.D. 2024-Mar-02 00:00:00.0000, -2.882826548421264E+08, 6.997629456463762E+07, 1.194505077051780E+08,
2460378.500000000, A.D. 2024-Mar-09 00:00:00.0000, -2.920750829979988E+08, 5.800936210978881E+07, 1.227619890678498E+08,
2460385.500000000, A.D. 2024-Mar-16 00:00:00.0000, -2.954432626816964E+08, 4.595807326443849E+07, 1.258951518705326E+08,
2460392.500000000, A.D. 2024-Mar-23 00:00:00.0000, -2.983914691437546E+08, 3.384135854663748E+07, 1.288493509058354E+08,
2460399.500000000, A.D. 2024-Mar-30 00:00:00.0000, -3.009246276298005E+08, 2.167747712628854E+07, 1.316243231061191E+08,
2460406.500000000, A.D. 2024-Apr-06 00:00:00.0000, -3.030482503566999E+08, 9.484001831735961E+06, 1.342201605490016E+08,
2460413.500000000, A.D. 2024-Apr-13 00:00:00.0000, -3.047683743755716E+08, -2.722191364258051E+06, 1.366372836636345E+08,
2460420.500000000, A.D. 2024-Apr-20 00:00:00.0000, -3.060915015239667E+08, -1.492492733870047E+07, 1.388764151423070E+08,
2460427.500000000, A.D. 2024-Apr-27 00:00:00.0000, -3.070245421584202E+08, -2.710873047633933E+07, 1.409385548114306E+08,
2460434.500000000, A.D. 2024-May-04 00:00:00.0000, -3.075747626888447E+08, -3.925881928692649E+07, 1.428249555266031E+08,
2460441.500000000, A.D. 2024-May-11 00:00:00.0000, -3.077497367236545E+08, -5.136109763840351E+07, 1.445371001592939E+08,
2460448.500000000, A.D. 2024-May-18 00:00:00.0000, -3.075572997375872E+08, -6.340214310194420E+07, 1.460766797368255E+08,
2460455.500000000, A.D. 2024-May-25 00:00:00.0000, -3.070055071889555E+08, -7.536919289469191E+07, 1.474455727753259E+08,
2460462.500000000, A.D. 2024-Jun-01 00:00:00.0000, -3.061025959440503E+08, -8.725012791563743E+07, 1.486458258173910E+08,
2460469.500000000, A.D. 2024-Jun-08 00:00:00.0000, -3.048569486529666E+08, -9.903345529436538E+07, 1.496796351544853E+08,
2460476.500000000, A.D. 2024-Jun-15 00:00:00.0000, -3.032770605469638E+08, -1.107082892637398E+08, 1.505493297316381E+08,
2460483.500000000, A.D. 2024-Jun-22 00:00:00.0000, -3.013715095163096E+08, -1.222643294988194E+08, 1.512573553997986E+08,
2460490.500000000, A.D. 2024-Jun-29 00:00:00.0000, -2.991489314339610E+08, -1.336918390248256E+08, 1.518062605297936E+08,
2460497.500000000, A.D. 2024-Jul-06 00:00:00.0000, -2.966179979199380E+08, -1.449816244130419E+08, 1.521986825064053E+08,
2460504.500000000, A.D. 2024-Jul-13 00:00:00.0000, -2.937873944337857E+08, -1.561250156529273E+08, 1.524373351114664E+08,
2460511.500000000, A.D. 2024-Jul-20 00:00:00.0000, -2.906658005140495E+08, -1.671138447333001E+08, 1.525249970213994E+08,
2460518.500000000, A.D. 2024-Jul-27 00:00:00.0000, -2.872618726552911E+08, -1.779404240494058E+08, 1.524645013471630E+08,
2460525.500000000, A.D. 2024-Aug-03 00:00:00.0000, -2.835842293900649E+08, -1.885975251456043E+08, 1.522587261079719E+08,
2460532.500000000, A.D. 2024-Aug-10 00:00:00.0000, -2.796414382573461E+08, -1.990783579098088E+08, 1.519105855710811E+08,
2460539.500000000, A.D. 2024-Aug-17 00:00:00.0000, -2.754420044637980E+08, -2.093765502881646E+08, 1.514230224024795E+08,
2460546.500000000, A.D. 2024-Aug-24 00:00:00.0000, -2.709943610702813E+08, -2.194861286139361E+08, 1.507990005709620E+08,
2460553.500000000, A.D. 2024-Aug-31 00:00:00.0000, -2.663068604550067E+08, -2.294014986678789E+08, 1.500414989366715E+08,
2460560.500000000, A.D. 2024-Sep-07 00:00:00.0000, -2.613877665614206E+08, -2.391174273860819E+08, 1.491535054479589E+08,
2460567.500000000, A.D. 2024-Sep-14 00:00:00.0000, -2.562452477253841E+08, -2.486290242510558E+08, 1.481380119684688E+08,
2460574.500000000, A.D. 2024-Sep-21 00:00:00.0000, -2.508873719968463E+08, -2.579317219772233E+08, 1.469980099055647E+08,
2460581.500000000, A.D. 2024-Sep-28 00:00:00.0000, -2.453221053386647E+08, -2.670212597367000E+08, 1.457364863777457E+08,
2460588.500000000, A.D. 2024-Oct-05 00:00:00.0000, -2.395573089394858E+08, -2.758936689355897E+08, 1.443564205473131E+08,
2460595.500000000, A.D. 2024-Oct-12 00:00:00.0000, -2.336007359175136E+08, -2.845452585631512E+08, 1.428607803598828E+08,
2460602.500000000, A.D. 2024-Oct-19 00:00:00.0000, -2.274600290882465E+08, -2.929726003789216E+08, 1.412525197937665E+08,
2460609.500000000, A.D. 2024-Oct-26 00:00:00.0000, -2.211427197554317E+08, -3.011725147288566E+08, 1.395345765216325E+08,
2460616.500000000, A.D. 2024-Nov-02 00:00:00.0000, -2.146562271997973E+08, -3.091420571262531E+08, 1.377098699157375E+08,
2460623.500000000, A.D. 2024-Nov-09 00:00:00.0000, -2.080078587066798E+08, -3.168785055623440E+08, 1.357812993596002E+08,
2460630.500000000, A.D. 2024-Nov-16 00:00:00.0000, -2.012048100502922E+08, -3.243793485297744E+08, 1.337517428364930E+08,
2460637.500000000, A.D. 2024-Nov-23 00:00:00.0000, -1.942541663366062E+08, -3.316422737903399E+08, 1.316240557611250E+08,
2460644.500000000, A.D. 2024-Nov-30 00:00:00.0000, -1.871629029501159E+08, -3.386651579097734E+08, 1.294010700085058E+08,
2460651.500000000, A.D. 2024-Dec-07 00:00:00.0000, -1.799378861429917E+08, -3.454460561182425E+08, 1.270855931143035E+08,
2460658.500000000, A.D. 2024-Dec-14 00:00:00.0000, -1.725858739171757E+08, -3.519831912509541E+08, 1.246804077898535E+08,
2460665.500000000, A.D. 2024-Dec-21 00:00:00.0000, -1.651135194829451E+08, -3.582749429874738E+08, 1.221882718443369E+08,
2460672.500000000, A.D. 2024-Dec-28 00:00:00.0000, -1.575273752895914E+08, -3.643198403362266E+08, 1.196119180741123E+08,
2460679.500000000, A.D. 2025-Jan-04 00:00:00.0000, -1.498338950035145E+08, -3.701165549684467E+08, 1.169540540611049E+08,
2460686.500000000, A.D. 2025-Jan-11 00:00:00.0000, -1.420394352310809E+08, -3.756638937213717E+08, 1.142173621699336E+08,
2460693.500000000, A.D. 2025-Jan-18 00:00:00.0000, -1.341502578814188E+08, -3.809607911684288E+08, 1.114044997402518E+08,
2460700.500000000, A.D. 2025-Jan-25 00:00:00.0000, -1.261725329057293E+08, -3.860063027102333E+08, 1.085180994014332E+08,
2460707.500000000, A.D. 2025-Feb-01 00:00:00.0000, -1.181123412053476E+08, -3.907995981967108E+08, 1.055607694790490E+08,
2460714.500000000, A.D. 2025-Feb-08 00:00:00.0000, -1.099756776336833E+08, -3.953399560422251E+08, 1.025350944800146E+08,
2460721.500000000, A.D. 2025-Feb-15 00:00:00.0000, -1.017684540489702E+08, -3.996267578365192E+08, 9.944363564406896E+07,
$$EOE